SL-16 R/B               
1 22803U 93059B   26071.51189748 -.00000055  00000+0 -33432-5 0  9991
2 22803  70.9929   5.1749 0018365 212.4075 147.5922 14.17231383679930
ARIANE 40 R/B           
1 22830U 93061H   26071.70128350  .00000244  00000+0  10535-3 0  9992
2 22830  98.4910 140.5294 0009574 275.1159  84.8933 14.32862849694537
COSMOS 2278             
1 23087U 94023A   26071.70954885 -.00000011  00000+0  18980-4 0  9992
2 23087  71.0552 168.7804 0008293   7.5290 352.5956 14.14379509645239
SL-16 R/B               
1 23088U 94023B   26071.40119859 -.00000214  00000+0 -85656-4 0  9994
2 23088  70.9985  65.1919 0005689 282.9842  77.0645 14.15010922646476
SL-16 R/B               
1 23343U 94074B   26071.71335812  .00000598  00000+0  86804-4 0  9996
2 23343  97.7106 102.4086 0006035 199.4350 283.4668 14.79412069687699
SL-16 R/B               
1 23405U 94077B   26071.16978169  .00000105  00000+0  78284-4 0  9992
2 23405  70.9853 347.2721 0002954 208.8129 151.2831 14.15561637616580
ARIANE 40+ R/B          
1 23561U 95021B   26071.74535764  .00000337  00000+0  12127-3 0  9999
2 23561  98.4492 143.1865 0007761 128.3405 343.1943 14.39774980619686
SL-16 R/B               
1 23705U 95058B   26071.74224013  .00000316  00000+0  18601-3 0  9991
2 23705  71.0225 173.8469 0010649 120.1829 240.0350 14.15497449568288
SL-16 R/B               
1 24298U 96051B   26071.71556530  .00000088  00000+0  74448-4 0  9990
2 24298  70.7604 168.8345 0014828 143.3945 216.8191 14.12416562522074
ORBVIEW 2 (SEASTAR)     
1 24883U 97037A   26071.41507765  .00000369  00000+0  14441-3 0  9996
2 24883  98.8572 235.7991 0003027  66.4464 293.7039 14.35497264508869
SL-16 R/B               
1 25400U 98043G   26071.81878428  .00000087  00000+0  55455-4 0  9999
2 25400  98.8257  25.2043 0010062  11.7495 348.3918 14.26050651439433
SL-16 R/B               
1 25407U 98045B   26071.68103589  .00000297  00000+0  17402-3 0  9994
2 25407  71.0120 175.2837 0006932   3.5595 356.5576 14.16191601427528
ISS (ZARYA)             
1 25544U 98067A   26071.80448780  .00009714  00000+0  18665-3 0  9994
2 25544  51.6325  56.9556 0007970 185.8192 174.2705 15.48609576556819
CZ-4B R/B               
1 25732U 99025C   26071.78033076  .00000050  00000+0  44809-4 0  9997
2 25732  98.6621 115.9886 0036587 337.5943 138.4266 14.18265977388609
OKEAN-O                 
1 25860U 99039A   26071.82885704  .00000826  00000+0  11520-3 0  9996
2 25860  97.9435 131.6884 0001156  70.7306 289.4031 14.80341218434850
SL-16 R/B               
1 25861U 99039B   26071.73823470  .00000699  00000+0  95390-4 0  9995
2 25861  97.9961 130.8305 0013601 245.1835 114.7964 14.81736452437315
DELTA 2 R/B             
1 25876U 99041E   26071.76900754  .00001418  00000+0  26634-3 0  9992
2 25876  51.7624 288.9809 0502449 357.5121   2.3326 14.11848167363466
